NORAD_CAT_ID,OBJECT_NAME,OBJECT_TYPE,EPOCH,MEAN_MOTION,ECCENTRICITY,INCLINATION,RA_OF_ASC_NODE,ARG_OF_PERICENTER,MEAN_ANOMALY,BSTAR,MEAN_MOTION_DOT,MEAN_MOTION_DDOT,TLE_LINE0,TLE_LINE1,TLE_LINE2,SEMIMAJOR_AXIS,PERIOD,APOGEE,PERIGEE,DECAYED
52565.0,STARLINK-3911,PAYLOAD,2022-11-17 11:48:36,15.08844354,0.0002027,53.2168,142.9296,47.7633,312.3531,7.3191e-05,8.77e-06,0.0,0 STARLINK-3911,1 52565U 22051AJ  22321.49209349  .00000877  00000-0  73191-4 0  9990,2 52565  53.2168 142.9296 0002027  47.7633 312.3531 15.08844354 29184,6917.8669999999975,95.437,541.134,538.33,0.0
52565.0,STARLINK-3911,PAYLOAD,2022-11-18 11:39:23,15.08847853,0.000209,53.2169,138.4693,49.104,311.0133,0.00012875,1.762e-05,0.0,0 STARLINK-3911,1 52565U 22051AJ  22322.48568674  .00001762  00000-0  12875-3 0  9994,2 52565  53.2169 138.4693 0002090  49.1040 311.0133 15.08847853 29400,6917.856,95.437,541.1669999999998,538.276,0.0
52565.0,STARLINK-3911,PAYLOAD,2022-11-18 18:00:56,15.08839249,0.0002137,53.217,137.2797,50.6106,309.5075,3.9469e-05,3.4e-06,0.0,0 STARLINK-3911,1 52565U 22051AJ  22322.75065573  .00000340  00000-0  39469-4 0  9994,2 52565  53.2170 137.2797 0002137  50.6106 309.5075 15.08839249 29447,6917.8830000000025,95.438,541.226,538.269,0.0
52565.0,STARLINK-3911,PAYLOAD,2022-11-19 05:08:38,15.08838452,0.0002129,53.2168,135.1978,50.4371,309.6809,8.1563e-06,-1.58e-06,0.0,0 STARLINK-3911,1 52565U 22051AJ  22323.21433716 -.00000158  00000-0  81563-5 0  9995,2 52565  53.2168 135.1978 0002129  50.4371 309.6809 15.08838452 29446,6917.885,95.438,541.2230000000002,538.2769999999998,0.0
52565.0,STARLINK-3911,PAYLOAD,2022-11-19 17:51:43,15.0884366,0.0002093,53.2169,132.8189,50.7417,309.376,3.7497e-05,3.09e-06,0.0,0 STARLINK-3911,1 52565U 22051AJ  22323.74425151  .00000309  00000-0  37497-4 0  9990,2 52565  53.2169 132.8189 0002093  50.7417 309.3760 15.08843660 29528,6917.869000000002,95.437,541.182,538.286,0.0
52565.0,STARLINK-3911,PAYLOAD,2022-11-19 22:37:52,15.08844519,0.0002086,53.217,131.9265,51.594,308.5239,8.4086e-06,-1.54e-06,0.0,0 STARLINK-3911,1 52565U 22051AJ  22323.94297044 -.00000154  00000-0  84086-5 0  9996,2 52565  53.2170 131.9265 0002086  51.5940 308.5239 15.08844519 29624,6917.8669999999975,95.437,541.175,538.289,0.0
52565.0,STARLINK-3911,PAYLOAD,2022-11-20 11:20:57,15.08849483,0.0002092,53.217,129.5476,51.7381,308.3799,3.5146e-05,2.71e-06,0.0,0 STARLINK-3911,1 52565U 22051AJ  22324.47288497  .00000271  00000-0  35146-4 0  9998,2 52565  53.2170 129.5476 0002092  51.7381 308.3799 15.08849483 29634,6917.851,95.437,541.164,538.269,0.0
52565.0,STARLINK-3911,PAYLOAD,2022-11-20 17:42:30,15.08841533,0.0001936,53.2182,128.3595,48.6689,311.447,0.00011518,1.545e-05,0.0,0 STARLINK-3911,1 52565U 22051AJ  22324.73784724  .00001545  00000-0  11518-3 0  9992,2 52565  53.2182 128.3595 0001936  48.6689 311.4470 15.08841533 29671,6917.876,95.437,541.08,538.401,0.0
52565.0,STARLINK-3911,PAYLOAD,2022-11-21 11:11:45,15.08833602,0.0002151,53.2173,125.0882,48.198,311.9196,1.3294e-05,-7.7e-07,0.0,0 STARLINK-3911,1 52565U 22051AJ  22325.46649773 -.00000077  00000-0  13294-4 0  9991,2 52565  53.2173 125.0882 0002151  48.1980 311.9196 15.08833602 29851,6917.9,95.438,541.253,538.2769999999998,0.0
52565.0,STARLINK-3911,PAYLOAD,2022-11-21 17:33:17,15.08850189,0.0001947,53.2192,123.9016,43.547,316.5676,-0.00013656,-2.462e-05,0.0,0 STARLINK-3911,1 52565U 22051AJ  22325.73145229 -.00002462  00000-0 -13656-3 0  9990,2 52565  53.2192 123.9016 0001947  43.5470 316.5676 15.08850189 29890,6917.849,95.437,541.061,538.367,0.0
52565.0,STARLINK-3911,PAYLOAD,2022-11-22 17:24:05,15.0883452,0.0002091,53.2174,119.4387,42.5515,317.5639,5.4882e-06,-2.01e-06,0.0,0 STARLINK-3911,1 52565U 22051AJ  22326.72505836 -.00000201  00000-0  54882-5 0  9990,2 52565  53.2174 119.4387 0002091  42.5515 317.5639 15.08834520 30041,6917.897,95.438,541.2090000000002,538.316,0.0
52565.0,STARLINK-3911,PAYLOAD,2022-11-23 09:17:56,15.08833291,0.0002079,53.2173,116.4645,46.2203,313.8961,1.4341e-05,-6e-07,0.0,0 STARLINK-3911,1 52565U 22051AJ  22327.38746254 -.00000060  00000-0  14341-4 0  9992,2 52565  53.2173 116.4645 0002079  46.2203 313.8961 15.08833291 30079,6917.901,95.438,541.2040000000002,538.328,0.0
52565.0,STARLINK-3911,PAYLOAD,2022-11-23 17:14:52,15.08835789,0.000209,53.2174,114.9779,46.5238,313.5927,3.5386e-05,2.75e-06,0.0,0 STARLINK-3911,1 52565U 22051AJ  22327.71866136  .00000275  00000-0  35386-4 0  9990,2 52565  53.2174 114.9779 0002090  46.5238 313.5927 15.08835789 30124,6917.893,95.438,541.2040000000002,538.312,0.0
52565.0,STARLINK-3911,PAYLOAD,2022-11-23 20:25:38,15.08837436,0.0002119,53.2175,114.383,46.8239,313.293,4.3211e-05,3.99e-06,0.0,0 STARLINK-3911,1 52565U 22051AJ  22327.85114020  .00000399  00000-0  43211-4 0  9996,2 52565  53.2175 114.3830 0002119  46.8239 313.2930 15.08837436 30215,6917.888000000001,95.438,541.219,538.2869999999998,0.0
52565.0,STARLINK-3911,PAYLOAD,2022-11-24 09:08:43,15.08837908,0.0002108,53.2177,112.004,46.9725,313.1443,0.00012483,1.699e-05,0.0,0 STARLINK-3911,1 52565U 22051AJ  22328.38105791  .00001699  00000-0  12483-3 0  9990,2 52565  53.2177 112.0040 0002108  46.9725 313.1443 15.08837908 30227,6917.887,95.438,541.21,538.293,0.0
52565.0,STARLINK-3911,PAYLOAD,2022-11-24 17:05:38,15.08841838,0.0002152,53.2177,110.5173,47.554,312.5634,0.00014893,2.083e-05,0.0,0 STARLINK-3911,1 52565U 22051AJ  22328.71225509  .00002083  00000-0  14893-3 0  9992,2 52565  53.2177 110.5173 0002152  47.5540 312.5634 15.08841838 30275,6917.875,95.437,541.2280000000002,538.251,0.0
52565.0,STARLINK-3911,PAYLOAD,2022-11-25 02:37:58,15.0883186,0.0002203,53.2178,108.7332,49.1634,310.9548,5.735300000000001e-05,6.24e-06,0.0,0 STARLINK-3911,1 52565U 22051AJ  22329.10970574  .00000624  00000-0  57353-4 0  9993,2 52565  53.2178 108.7332 0002203  49.1634 310.9548 15.08831860 30406,6917.905,95.438,541.294,538.246,0.0
52565.0,STARLINK-3911,PAYLOAD,2022-11-25 10:34:54,15.08836362,0.0002122,53.2175,107.2462,48.8235,311.2940000000001,7.5292e-05,9.1e-06,0.0,0 STARLINK-3911,1 52565U 22051AJ  22329.44090302  .00000910  00000-0  75292-4 0  9992,2 52565  53.2175 107.2462 0002122  48.8235 311.2940 15.08836362 30383,6917.892,95.438,541.224,538.289,0.0
52565.0,STARLINK-3911,PAYLOAD,2022-11-25 16:56:26,15.08842952,0.0002134,53.2179,106.0567,48.3305,311.7870000000001,9.7638e-05,1.266e-05,0.0,0 STARLINK-3911,1 52565U 22051AJ  22329.70585988  .00001266  00000-0  97638-4 0  9993,2 52565  53.2179 106.0567 0002134  48.3305 311.7870 15.08842952 30497,6917.871,95.437,541.2130000000002,538.26,0.0
52565.0,STARLINK-3911,PAYLOAD,2022-11-26 02:28:44,15.08850434,0.0002118,53.2179,104.2727,48.6244,311.493,0.0001268,1.731e-05,0.0,0 STARLINK-3911,1 52565U 22051AJ  22330.10329356  .00001731  00000-0  12680-3 0  9994,2 52565  53.2179 104.2727 0002118  48.6244 311.4930 15.08850434 30557,6917.848000000001,95.437,541.179,538.248,0.0
52565.0,STARLINK-3911,PAYLOAD,2022-11-26 18:22:36,15.08847327,0.0002129,53.2181,101.299,51.1081,309.0101,5.5029e-05,5.88e-06,0.0,0 STARLINK-3911,1 52565U 22051AJ  22330.76569449  .00000588  00000-0  55029-4 0  9999,2 52565  53.2181 101.2990 0002129  51.1081 309.0101 15.08847327 30650,6917.858,95.437,541.196,538.25,0.0
52565.0,STARLINK-3911,PAYLOAD,2022-11-27 08:41:04,15.08841074,0.0002068,53.2179,98.6227,48.175,311.9418,9.4966e-05,1.224e-05,0.0,0 STARLINK-3911,1 52565U 22051AJ  22331.36185705  .00001224  00000-0  94966-4 0  9996,2 52565  53.2179  98.6227 0002068  48.1750 311.9418 15.08841074 30746,6917.877,95.437,541.173,538.311,0.0
52565.0,STARLINK-3911,PAYLOAD,2022-11-27 18:13:23,15.08838846,0.0002028,53.2179,96.8381,48.2465,311.87,7.0295e-06,-1.76e-06,0.0,0 STARLINK-3911,1 52565U 22051AJ  22331.75929932 -.00000176  00000-0  70295-5 0  9993,2 52565  53.2179  96.8381 0002028  48.2465 311.8700 15.08838846 30732,6917.884,95.438,541.1519999999998,538.346,0.0
52565.0,STARLINK-3911,PAYLOAD,2022-11-28 08:31:51,15.0884341,0.0002025,53.2188,94.1618,47.8048,312.3116,3.9857e-05,3.46e-06,0.0,0 STARLINK-3911,1 52565U 22051AJ  22332.35545506  .00000346  00000-0  39857-4 0  9997,2 52565  53.2188  94.1618 0002025  47.8048 312.3116 15.08843410 30825,6917.87,95.437,541.136,538.3340000000002,0.0
52565.0,STARLINK-3911,PAYLOAD,2022-11-28 14:53:24,15.08835279,0.0002026,53.2187,92.9724,45.3555,314.7602,6.0011e-06,-1.93e-06,0.0,0 STARLINK-3911,1 52565U 22051AJ  22332.62042067 -.00000193  00000-0  60011-5 0  9999,2 52565  53.2187  92.9724 0002026  45.3555 314.7602 15.08835279 30937,6917.895,95.438,541.161,538.3580000000002,0.0
52565.0,STARLINK-3911,PAYLOAD,2022-11-29 08:22:38,15.08842012,0.0002026,53.2187,89.7018,43.0392,317.0759,0.00011488,1.541e-05,0.0,0 STARLINK-3911,1 52565U 22051AJ  22333.34905365  .00001541  00000-0  11488-3 0  9997,2 52565  53.2187  89.7018 0002026  43.0392 317.0759 15.08842012 31046,6917.874,95.437,541.141,538.3380000000002,0.0
52565.0,STARLINK-3911,PAYLOAD,2022-11-29 17:54:57,15.08838915,0.0002064,53.2187,87.9179,40.4209,319.6936,7.592699999999999e-05,9.2e-06,0.0,0 STARLINK-3911,1 52565U 22051AJ  22333.74649633  .00000920  00000-0  75927-4 0  9993,2 52565  53.2187  87.9179 0002064  40.4209 319.6936 15.08838915 31035,6917.884,95.438,541.177,538.321,0.0
52565.0,STARLINK-3911,PAYLOAD,2022-11-30 08:13:26,15.08830134,0.0002083,53.2185,85.2416,42.4157,317.6996,2.692300000000001e-05,1.4e-06,0.0,0 STARLINK-3911,1 52565U 22051AJ  22334.34266526  .00000140  00000-0  26923-4 0  9992,2 52565  53.2185  85.2416 0002083  42.4157 317.6996 15.08830134 31199,6917.911,95.438,541.217,538.335,0.0
52565.0,STARLINK-3911,PAYLOAD,2022-12-01 14:25:45,15.0884445,0.0002148,53.219,79.5917,42.3071,317.8086,-2.8891e-05,-7.48e-06,0.0,0 STARLINK-3911,1 52565U 22051AJ  22335.60122047 -.00000748  00000-0 -28891-4 0  9993,2 52565  53.2190  79.5917 0002148  42.3071 317.8086 15.08844450 31315,6917.8669999999975,95.437,541.2180000000002,538.246,0.0
